STARLINK-4666           
1 53789U 22111S   26158.46858330  .00003365  00000+0  22949-3 0  9993
2 53789  53.1692 230.7689 0001089 100.3467 259.7647 15.08820840207245
STARLINK-4734           
1 53790U 22111T   26158.48330801  .00000132  00000+0  26379-4 0  9996
2 53790  53.1746 230.8603 0001264  89.0423 271.0713 15.08830276207250
STARLINK-4739           
1 53792U 22111V   26158.92592141  .00000381  00000+0  42005-4 0  9994
2 53792  53.1702 229.3434 0001011  81.2552 278.8554 15.08836485207308
STARLINK-4728           
1 53793U 22111W   26159.00585863 -.00000149  00000+0  87247-5 0  9999
2 53793  53.1686 228.4326 0001206  85.1629 274.9500 15.08834396207323
STARLINK-4730           
1 53794U 22111X   26158.48058685 -.00000683  00000+0 -24849-4 0  9990
2 53794  53.1730 230.8404 0001260  90.2091 269.9045 15.08826589207242
STARLINK-4742           
1 53795U 22111Y   26158.92856849  .00003141  00000+0  21544-3 0  9996
2 53795  53.1709 228.6630 0001056  95.1979 264.9133 15.08820114207316
STARLINK-4723           
1 53797U 22111AA  26158.91751188  .00002809  00000+0  19456-3 0  9996
2 53797  53.1697 228.5960 0001046 103.0990 257.0118 15.08827158207300
STARLINK-4712           
1 53798U 22111AB  26158.92123273  .00033148  00000+0  20985-2 0  9994
2 53798  53.1701 228.6173 0002667  89.5951 270.5346 15.08707051207301
STARLINK-4710           
1 53799U 22111AC  26158.89737649  .00007215  00000+0  47137-3 0  9994
2 53799  53.1691 219.1934 0001098  87.8345 272.2773 15.08805914207439
STARLINK-4720           
1 53800U 22111AD  26159.22043012  .00030376  00000+0  38536-3 0  9996
2 53800  53.2073 163.2030 0004350  61.5396 298.6056 15.59196262208254
STARLINK-4715           
1 53801U 22111AE  26158.86694285  .00006185  00000+0  40674-3 0  9997
2 53801  53.1692 219.0089 0001291  96.1588 263.9551 15.08804480207439
STARLINK-4726           
1 53802U 22111AF  26158.87800099  .00008077  00000+0  52562-3 0  9992
2 53802  53.1692 219.0759 0001263 102.1392 257.9741 15.08791944207438
STARLINK-4727           
1 53803U 22111AG  26158.82604911  .00007838  00000+0  51055-3 0  9993
2 53803  53.1696 204.4879 0001488  42.1782 317.9324 15.08801371207631
STARLINK-4729           
1 53804U 22111AH  26158.87019629  .00001532  00000+0  11433-3 0  9996
2 53804  53.1687 214.0269 0001079  83.0050 277.1065 15.08830187207502
STARLINK-4763           
1 53805U 22111AJ  26158.83436552  .00005535  00000+0  36590-3 0  9999
2 53805  53.1678 204.5331 0001105 109.5337 250.5774 15.08809385207631
STARLINK-4768           
1 53806U 22111AK  26158.74136246 -.00000693  00000+0 -25434-4 0  9995
2 53806  53.1689 204.6655 0000998  84.5691 275.5414 15.08834343207627
STARLINK-4738           
1 53819U 22114B   26158.57990804  .00000052  00000+0  21354-4 0  9995
2 53819  53.1695 260.4181 0000965  81.3336 278.7765 15.08833359206402
STARLINK-4758           
1 53820U 22114C   26159.01050679  .00002156  00000+0  15348-3 0  9996
2 53820  53.1694 258.8330 0001100  90.0380 270.0738 15.08850925206467
STARLINK-4748           
1 53823U 22114F   26158.85086735 -.00000553  00000+0 -16658-4 0  9999
2 53823  53.1728 214.3159 0001583  91.9501 268.1672 15.08828342207075
STARLINK-4757           
1 53824U 22114G   26158.99938431  .00001215  00000+0  94425-4 0  9996
2 53824  53.1695 258.0672 0001283  74.9480 285.1653 15.08833958206388
STARLINK-4751           
1 53825U 22114H   26159.00314012  .00001647  00000+0  12156-3 0  9992
2 53825  53.1697 258.7860 0001554  95.3082 264.8087 15.08837041206464
STARLINK-4756           
1 53826U 22114J   26158.52105208  .00002200  00000+0  15632-3 0  9992
2 53826  53.1686 260.7571 0001140  84.8147 275.2974 15.08821833206396
STARLINK-4764           
1 53827U 22114K   26158.99581122  .00024729  00000+0  15711-2 0  9994
2 53827  53.1688 258.7416 0001800 106.6551 253.4639 15.08729246206468
STARLINK-4760           
1 53828U 22114L   26158.58359309  .00000049  00000+0  21196-4 0  9995
2 53828  53.1697 260.4375 0001197  89.2254 270.8875 15.08829638206403
STARLINK-4759           
1 53829U 22114M   26159.25704610  .00000353  00000+0  40284-4 0  9997
2 53829  53.1676 257.5267 0001132 106.3235 253.7881 15.08837563206501
STARLINK-4761           
1 53830U 22114N   26158.97366400 -.00000253  00000+0  22058-5 0  9998
2 53830  53.1692 258.6039 0001319  83.0237 277.0905 15.08831943206467
STARLINK-4649           
1 53831U 22114P   26158.98839465 -.00004983  00000+0 -29502-3 0  9990
2 53831  53.1699 258.6956 0001291 102.3267 257.7870 15.08860618206467
STARLINK-4747           
1 53832U 22114Q   26158.56885256 -.00000247  00000+0  25753-5 0  9998
2 53832  53.1715 260.3473 0001186  90.8779 269.2348 15.08832527206403
STARLINK-4771           
1 53833U 22114R   26158.97830338  .00000840  00000+0  70846-4 0  9995
2 53833  53.1700 258.6342 0001291  88.9284 271.1856 15.08837126206461
STARLINK-4737           
1 53834U 22114S   26158.56148069  .00000113  00000+0  25199-4 0  9998
2 53834  53.1731 260.3006 0001440  89.8619 270.2538 15.08838001206405
