OBJECT_NAME,OBJECT_ID,EPOCH,MEAN_MOTION,ECCENTRICITY,INCLINATION,RA_OF_ASC_NODE,ARG_OF_PERICENTER,MEAN_ANOMALY,EPHEMERIS_TYPE,CLASSIFICATION_TYPE,NORAD_CAT_ID,ELEMENT_SET_NO,REV_AT_EPOCH,BSTAR,MEAN_MOTION_DOT,MEAN_MOTION_DDOT
STARLINK-4666,2022-111S,2026-06-07T11:14:45.597120,15.08820840,.00010899,53.1692,230.7689,100.3467,259.7647,0,U,53789,999,20724,.2294899E-3,.3365E-4,0
STARLINK-4734,2022-111T,2026-06-07T11:35:57.812064,15.08830276,.00012642,53.1746,230.8603,89.0423,271.0713,0,U,53790,999,20725,.26378937E-4,.132E-5,0
STARLINK-4739,2022-111V,2026-06-07T22:13:19.609824,15.08836485,.00010114,53.1702,229.3434,81.2552,278.8554,0,U,53792,999,20730,.42004626E-4,.381E-5,0
STARLINK-4728,2022-111W,2026-06-08T00:08:26.185632,15.08834396,.0001206,53.1686,228.4326,85.1629,274.9500,0,U,53793,999,20732,.8724684E-5,-.149E-5,0
STARLINK-4730,2022-111X,2026-06-07T11:32:02.703840,15.08826589,.00012606,53.1730,230.8404,90.2091,269.9045,0,U,53794,999,20724,-.24849166E-4,-.683E-5,0
STARLINK-4742,2022-111Y,2026-06-07T22:17:08.317536,15.08820114,.00010565,53.1709,228.6630,95.1979,264.9133,0,U,53795,999,20731,.21543874E-3,.3141E-4,0
STARLINK-4723,2022-111AA,2026-06-07T22:01:13.026432,15.08827158,.00010465,53.1697,228.5960,103.0990,257.0118,0,U,53797,999,20730,.19455664E-3,.2809E-4,0
STARLINK-4712,2022-111AB,2026-06-07T22:06:34.507872,15.08707051,.00026678,53.1701,228.6173,89.5951,270.5346,0,U,53798,999,20730,.20985481E-2,.33148E-3,0
STARLINK-4710,2022-111AC,2026-06-07T21:32:13.328736,15.08805914,.00010982,53.1691,219.1934,87.8345,272.2773,0,U,53799,999,20743,.47136605E-3,.7215E-4,0
STARLINK-4720,2022-111AD,2026-06-08T05:17:25.162368,15.59196262,.00043501,53.2073,163.2030,61.5396,298.6056,0,U,53800,999,20825,.38535933E-3,.30376E-3,0
STARLINK-4715,2022-111AE,2026-06-07T20:48:23.862240,15.08804480,.00012916,53.1692,219.0089,96.1588,263.9551,0,U,53801,999,20743,.40674106E-3,.6185E-4,0
STARLINK-4726,2022-111AF,2026-06-07T21:04:19.285536,15.08791944,.00012635,53.1692,219.0759,102.1392,257.9741,0,U,53802,999,20743,.5256229E-3,.8077E-4,0
STARLINK-4727,2022-111AG,2026-06-07T19:49:30.643104,15.08801371,.00014888,53.1696,204.4879,42.1782,317.9324,0,U,53803,999,20763,.51054772E-3,.7838E-4,0
STARLINK-4729,2022-111AH,2026-06-07T20:53:04.959456,15.08830187,.00010795,53.1687,214.0269,83.0050,277.1065,0,U,53804,999,20750,.11433465E-3,.1532E-4,0
STARLINK-4763,2022-111AJ,2026-06-07T20:01:29.180928,15.08809385,.00011057,53.1678,204.5331,109.5337,250.5774,0,U,53805,999,20763,.36589683E-3,.5535E-4,0
STARLINK-4768,2022-111AK,2026-06-07T17:47:33.716544,15.08834343,.0000998,53.1689,204.6655,84.5691,275.5414,0,U,53806,999,20762,-.25434213E-4,-.693E-5,0
STARLINK-4738,2022-114B,2026-06-07T13:55:04.054656,15.08833359,.0000965,53.1695,260.4181,81.3336,278.7765,0,U,53819,999,20640,.21353981E-4,.52E-6,0
STARLINK-4758,2022-114C,2026-06-08T00:15:07.786656,15.08850925,.00011005,53.1694,258.8330,90.0380,270.0738,0,U,53820,999,20646,.15348485E-3,.2156E-4,0
STARLINK-4748,2022-114F,2026-06-07T20:25:14.939040,15.08828342,.00015833,53.1728,214.3159,91.9501,268.1672,0,U,53823,999,20707,-.16658485E-4,-.553E-5,0
STARLINK-4757,2022-114G,2026-06-07T23:59:06.804384,15.08833958,.00012837,53.1695,258.0672,74.9480,285.1653,0,U,53824,999,20638,.94425437E-4,.1215E-4,0
STARLINK-4751,2022-114H,2026-06-08T00:04:31.306368,15.08837041,.00015541,53.1697,258.7860,95.3082,264.8087,0,U,53825,999,20646,.12155655E-3,.1647E-4,0
STARLINK-4756,2022-114J,2026-06-07T12:30:18.899712,15.08821833,.00011401,53.1686,260.7571,84.8147,275.2974,0,U,53826,999,20639,.1563237E-3,.22E-4,0
STARLINK-4764,2022-114K,2026-06-07T23:53:58.089408,15.08729246,.00018004,53.1688,258.7416,106.6551,253.4639,0,U,53827,999,20646,.1571052E-2,.24729E-3,0
STARLINK-4760,2022-114L,2026-06-07T14:00:22.442976,15.08829638,.00011971,53.1697,260.4375,89.2254,270.8875,0,U,53828,999,20640,.21195955E-4,.49E-6,0
STARLINK-4759,2022-114M,2026-06-08T06:10:08.783040,15.08837563,.00011321,53.1676,257.5267,106.3235,253.7881,0,U,53829,999,20650,.40283758E-4,.353E-5,0
STARLINK-4761,2022-114N,2026-06-07T23:22:04.569600,15.08831943,.00013194,53.1692,258.6039,83.0237,277.0905,0,U,53830,999,20646,.2205819E-5,-.253E-5,0
STARLINK-4649,2022-114P,2026-06-07T23:43:17.297760,15.08860618,.00012919,53.1699,258.6956,102.3267,257.7870,0,U,53831,999,20646,-.29502052E-3,-.4983E-4,0
STARLINK-4747,2022-114Q,2026-06-07T13:39:08.861184,15.08832527,.0001186,53.1715,260.3473,90.8779,269.2348,0,U,53832,999,20640,.2575277E-5,-.247E-5,0
STARLINK-4771,2022-114R,2026-06-07T23:28:45.412032,15.08837126,.00012913,53.1700,258.6342,88.9284,271.1856,0,U,53833,999,20646,.70845812E-4,.84E-5,0
STARLINK-4737,2022-114S,2026-06-07T13:28:31.931616,15.08838001,.00014404,53.1731,260.3006,89.8619,270.2538,0,U,53834,999,20640,.25198524E-4,.113E-5,0
